IRIDIUM 63              
1 25286U 98021B   26026.40905648  .00000760  00000+0  25113-3 0  9992
2 25286  86.4011 348.4696 0001953  85.7510 274.3910 14.36783588455899
IRIDIUM 69              
1 25319U 98026A   26026.42712956  .00001012  00000+0  30727-3 0  9992
2 25319  86.3993   1.0423 0003536  44.5392 315.6091 14.41267707455215
IRIDIUM 71              
1 25320U 98026B   26026.41095637  .00000840  00000+0  25362-3 0  9990
2 25320  86.3998 355.7201 0004259  79.3927 280.7752 14.41359393455745
IRIDIUM 73              
1 25344U 98032C   26026.50376196  .00001045  00000+0  25339-3 0  9997
2 25344  86.4438 311.9713 0001950  68.0969 292.0444 14.52067699462962
IRIDIUM 82              
1 25467U 98051A   26026.42375971  .00065191  00000+0  10294-2 0  9990
2 25467  86.3604 358.5314 0057894 154.6064 205.8062 15.51304392458318
